SL-14 R/B               
1 16496U 86006B   26097.45891648  .00001097  00000+0  11372-3 0  9998
2 16496  82.5267 232.6566 0076587 176.2308 183.9504 14.86868882153488
COSMOS 1743             
1 16719U 86034A   26097.57563530  .00046867  00000+0  54994-3 0  9997
2 16719  82.5318  43.4584 0006176 147.6855 212.4782 15.61269821184759
SL-14 R/B               
1 16792U 86046B   26097.16355070  .00000621  00000+0  68605-4 0  9997
2 16792  82.4821  53.2731 0024245 131.3405 228.9903 14.85621483130635
SL-14 R/B               
1 16882U 86055B   26097.50484241  .00000520  00000+0  57110-4 0  9995
2 16882  82.5169  99.5810 0017572 234.0421 240.6855 14.85670905123649
AJISAI (EGS)            
1 16908U 86061A   26097.62712531 -.00000098  00000+0 -40286-5 0  9999
2 16908  50.0124   4.3664 0011393   1.4255  72.9931 12.44515695471606
SL-14 R/B               
1 17567U 87024B   26097.38856801  .00000603  00000+0  65772-4 0  9999
2 17567  82.5270  65.7831 0018666 161.0520 199.1395 14.86162863 92399
COSMOS 1833             
1 17589U 87027A   26097.53019278 -.00000314  00000+0 -14199-3 0  9999
2 17589  70.9163 265.3966 0022829 171.1769 188.9758 14.13042541 14398
SL-16 R/B               
1 17590U 87027B   26097.56131574  .00000123  00000+0  84784-4 0  9992
2 17590  71.0032 215.6515 0002860  68.5455 291.5974 14.17170009 19435
SL-14 R/B               
1 17912U 87038B   26097.53297855  .00000550  00000+0  60867-4 0  9994
2 17912  82.4980 269.6269 0020662  70.8944 289.4507 14.85398730 83511
COSMOS 1844             
1 17973U 87041A   26097.39314633  .00000199  00000+0  12839-3 0  9997
2 17973  70.9014 333.6353 0031759 335.6632  24.2988 14.14563884  7643
SL-14 R/B               
1 18153U 87055B   26097.37004597  .00000462  00000+0  50412-4 0  9999
2 18153  82.4990 322.0022 0019120 279.6699  80.2357 14.85658720 74196
COSMOS 1867             
1 18187U 87060A   26097.50362911  .00000000  00000+0  37605-4 0  9991
2 18187  65.0104 226.0080 0015008 280.2437  79.6955 14.31507941 24069
SL-14 R/B               
1 18749U 88001B   26097.50211357  .00000473  00000+0  51711-4 0  9996
2 18749  82.5153 168.2697 0019103 139.6134 220.6505 14.85560415 46307
COSMOS 1933             
1 18958U 88020A   26097.33035476  .00004635  00000+0  22467-3 0  9995
2 18958  82.5146 222.5688 0005406  99.7851 260.3994 15.18283596 54578
SL-3 R/B                
1 19046U 88032B   26097.56542253  .00005475  00000+0  25314-3 0  9995
2 19046  97.5231  80.7284 0027273 130.7706 229.5902 15.20249889 56494
SL-16 R/B               
1 19120U 88039B   26097.44717731  .00000004  00000+0  24819-4 0  9990
2 19120  71.0175   7.7405 0023934 293.3370  66.5237 14.19620843962461
COSMOS 1953             
1 19210U 88050A   26097.49116677  .00008550  00000+0  30191-3 0  9993
2 19210  82.5056 129.2677 0011542  32.1083 328.0857 15.29002925 42188
