[{"OBJECT_NAME":"SL-14 R/B","OBJECT_ID":"1986-006B","EPOCH":"2026-04-07T11:00:50.383872","MEAN_MOTION":14.86868882,"ECCENTRICITY":0.00765879,"INCLINATION":82.5267,"RA_OF_ASC_NODE":232.6566,"ARG_OF_PERICENTER":176.2308,"MEAN_ANOMALY":183.9504,"EPHEMERIS_TYPE":0,"CLASSIFICATION_TYPE":"U","NORAD_CAT_ID":16496,"ELEMENT_SET_NO":999,"REV_AT_EPOCH":15348,"BSTAR":0.00011372092,"MEAN_MOTION_DOT":1.097e-5,"MEAN_MOTION_DDOT":0},{"OBJECT_NAME":"COSMOS 1743","OBJECT_ID":"1986-034A","EPOCH":"2026-04-07T13:48:54.889920","MEAN_MOTION":15.61269821,"ECCENTRICITY":0.00061767,"INCLINATION":82.5318,"RA_OF_ASC_NODE":43.4584,"ARG_OF_PERICENTER":147.6855,"MEAN_ANOMALY":212.4782,"EPHEMERIS_TYPE":0,"CLASSIFICATION_TYPE":"U","NORAD_CAT_ID":16719,"ELEMENT_SET_NO":999,"REV_AT_EPOCH":18475,"BSTAR":0.0005499444,"MEAN_MOTION_DOT":0.00046867,"MEAN_MOTION_DDOT":0},{"OBJECT_NAME":"SL-14 R/B","OBJECT_ID":"1986-046B","EPOCH":"2026-04-07T03:55:30.780480","MEAN_MOTION":14.85621483,"ECCENTRICITY":0.00242454,"INCLINATION":82.4821,"RA_OF_ASC_NODE":53.2731,"ARG_OF_PERICENTER":131.3405,"MEAN_ANOMALY":228.9903,"EPHEMERIS_TYPE":0,"CLASSIFICATION_TYPE":"U","NORAD_CAT_ID":16792,"ELEMENT_SET_NO":999,"REV_AT_EPOCH":13063,"BSTAR":6.8605457e-5,"MEAN_MOTION_DOT":6.21e-6,"MEAN_MOTION_DDOT":0},{"OBJECT_NAME":"SL-14 R/B","OBJECT_ID":"1986-055B","EPOCH":"2026-04-07T12:06:58.384224","MEAN_MOTION":14.85670905,"ECCENTRICITY":0.00175725,"INCLINATION":82.5169,"RA_OF_ASC_NODE":99.581,"ARG_OF_PERICENTER":234.0421,"MEAN_ANOMALY":240.6855,"EPHEMERIS_TYPE":0,"CLASSIFICATION_TYPE":"U","NORAD_CAT_ID":16882,"ELEMENT_SET_NO":999,"REV_AT_EPOCH":12364,"BSTAR":5.7109731e-5,"MEAN_MOTION_DOT":5.2e-6,"MEAN_MOTION_DDOT":0},{"OBJECT_NAME":"AJISAI (EGS)","OBJECT_ID":"1986-061A","EPOCH":"2026-04-07T15:03:03.626784","MEAN_MOTION":12.44515695,"ECCENTRICITY":0.00113932,"INCLINATION":50.0124,"RA_OF_ASC_NODE":4.3664,"ARG_OF_PERICENTER":1.4255,"MEAN_ANOMALY":72.9931,"EPHEMERIS_TYPE":0,"CLASSIFICATION_TYPE":"U","NORAD_CAT_ID":16908,"ELEMENT_SET_NO":999,"REV_AT_EPOCH":47160,"BSTAR":-4.028578e-6,"MEAN_MOTION_DOT":-9.8e-7,"MEAN_MOTION_DDOT":0},{"OBJECT_NAME":"SL-14 R/B","OBJECT_ID":"1987-024B","EPOCH":"2026-04-07T09:19:32.276064","MEAN_MOTION":14.86162863,"ECCENTRICITY":0.00186669,"INCLINATION":82.527,"RA_OF_ASC_NODE":65.7831,"ARG_OF_PERICENTER":161.052,"MEAN_ANOMALY":199.1395,"EPHEMERIS_TYPE":0,"CLASSIFICATION_TYPE":"U","NORAD_CAT_ID":17567,"ELEMENT_SET_NO":999,"REV_AT_EPOCH":9239,"BSTAR":6.5772003e-5,"MEAN_MOTION_DOT":6.03e-6,"MEAN_MOTION_DDOT":0},{"OBJECT_NAME":"COSMOS 1833","OBJECT_ID":"1987-027A","EPOCH":"2026-04-07T12:43:28.656192","MEAN_MOTION":14.13042541,"ECCENTRICITY":0.00228293,"INCLINATION":70.9163,"RA_OF_ASC_NODE":265.3966,"ARG_OF_PERICENTER":171.1769,"MEAN_ANOMALY":188.9758,"EPHEMERIS_TYPE":0,"CLASSIFICATION_TYPE":"U","NORAD_CAT_ID":17589,"ELEMENT_SET_NO":999,"REV_AT_EPOCH":1439,"BSTAR":-0.00014199247,"MEAN_MOTION_DOT":-3.14e-6,"MEAN_MOTION_DDOT":0},{"OBJECT_NAME":"SL-16 R/B","OBJECT_ID":"1987-027B","EPOCH":"2026-04-07T13:28:17.679936","MEAN_MOTION":14.17170009,"ECCENTRICITY":0.00028609,"INCLINATION":71.0032,"RA_OF_ASC_NODE":215.6515,"ARG_OF_PERICENTER":68.5455,"MEAN_ANOMALY":291.5974,"EPHEMERIS_TYPE":0,"CLASSIFICATION_TYPE":"U","NORAD_CAT_ID":17590,"ELEMENT_SET_NO":999,"REV_AT_EPOCH":1943,"BSTAR":8.4784383e-5,"MEAN_MOTION_DOT":1.23e-6,"MEAN_MOTION_DDOT":0},{"OBJECT_NAME":"SL-14 R/B","OBJECT_ID":"1987-038B","EPOCH":"2026-04-07T12:47:29.346720","MEAN_MOTION":14.8539873,"ECCENTRICITY":0.0020662,"INCLINATION":82.498,"RA_OF_ASC_NODE":269.6269,"ARG_OF_PERICENTER":70.8944,"MEAN_ANOMALY":289.4507,"EPHEMERIS_TYPE":0,"CLASSIFICATION_TYPE":"U","NORAD_CAT_ID":17912,"ELEMENT_SET_NO":999,"REV_AT_EPOCH":8351,"BSTAR":6.0866814e-5,"MEAN_MOTION_DOT":5.5e-6,"MEAN_MOTION_DDOT":0},{"OBJECT_NAME":"COSMOS 1844","OBJECT_ID":"1987-041A","EPOCH":"2026-04-07T09:26:07.842912","MEAN_MOTION":14.14563884,"ECCENTRICITY":0.00317598,"INCLINATION":70.9014,"RA_OF_ASC_NODE":333.6353,"ARG_OF_PERICENTER":335.6632,"MEAN_ANOMALY":24.2988,"EPHEMERIS_TYPE":0,"CLASSIFICATION_TYPE":"U","NORAD_CAT_ID":17973,"ELEMENT_SET_NO":999,"REV_AT_EPOCH":764,"BSTAR":0.00012839067,"MEAN_MOTION_DOT":1.99e-6,"MEAN_MOTION_DDOT":0},{"OBJECT_NAME":"SL-14 R/B","OBJECT_ID":"1987-055B","EPOCH":"2026-04-07T08:52:51.971808","MEAN_MOTION":14.8565872,"ECCENTRICITY":0.00191209,"INCLINATION":82.499,"RA_OF_ASC_NODE":322.0022,"ARG_OF_PERICENTER":279.6699,"MEAN_ANOMALY":80.2357,"EPHEMERIS_TYPE":0,"CLASSIFICATION_TYPE":"U","NORAD_CAT_ID":18153,"ELEMENT_SET_NO":999,"REV_AT_EPOCH":7419,"BSTAR":5.0412313e-5,"MEAN_MOTION_DOT":4.62e-6,"MEAN_MOTION_DDOT":0},{"OBJECT_NAME":"COSMOS 1867","OBJECT_ID":"1987-060A","EPOCH":"2026-04-07T12:05:13.555104","MEAN_MOTION":14.31507941,"ECCENTRICITY":0.00150082,"INCLINATION":65.0104,"RA_OF_ASC_NODE":226.008,"ARG_OF_PERICENTER":280.2437,"MEAN_ANOMALY":79.6955,"EPHEMERIS_TYPE":0,"CLASSIFICATION_TYPE":"U","NORAD_CAT_ID":18187,"ELEMENT_SET_NO":999,"REV_AT_EPOCH":2406,"BSTAR":3.7605181e-5,"MEAN_MOTION_DOT":0,"MEAN_MOTION_DDOT":0},{"OBJECT_NAME":"SL-14 R/B","OBJECT_ID":"1988-001B","EPOCH":"2026-04-07T12:03:02.612448","MEAN_MOTION":14.85560415,"ECCENTRICITY":0.00191032,"INCLINATION":82.5153,"RA_OF_ASC_NODE":168.2697,"ARG_OF_PERICENTER":139.6134,"MEAN_ANOMALY":220.6505,"EPHEMERIS_TYPE":0,"CLASSIFICATION_TYPE":"U","NORAD_CAT_ID":18749,"ELEMENT_SET_NO":999,"REV_AT_EPOCH":4630,"BSTAR":5.1710975e-5,"MEAN_MOTION_DOT":4.73e-6,"MEAN_MOTION_DDOT":0},{"OBJECT_NAME":"COSMOS 1933","OBJECT_ID":"1988-020A","EPOCH":"2026-04-07T07:55:42.651264","MEAN_MOTION":15.18283596,"ECCENTRICITY":0.00054069,"INCLINATION":82.5146,"RA_OF_ASC_NODE":222.5688,"ARG_OF_PERICENTER":99.7851,"MEAN_ANOMALY":260.3994,"EPHEMERIS_TYPE":0,"CLASSIFICATION_TYPE":"U","NORAD_CAT_ID":18958,"ELEMENT_SET_NO":999,"REV_AT_EPOCH":5457,"BSTAR":0.0002246706,"MEAN_MOTION_DOT":4.635e-5,"MEAN_MOTION_DDOT":0},{"OBJECT_NAME":"SL-3 R/B","OBJECT_ID":"1988-032B","EPOCH":"2026-04-07T13:34:12.506592","MEAN_MOTION":15.20249889,"ECCENTRICITY":0.00272734,"INCLINATION":97.5231,"RA_OF_ASC_NODE":80.7284,"ARG_OF_PERICENTER":130.7706,"MEAN_ANOMALY":229.5902,"EPHEMERIS_TYPE":0,"CLASSIFICATION_TYPE":"U","NORAD_CAT_ID":19046,"ELEMENT_SET_NO":999,"REV_AT_EPOCH":5649,"BSTAR":0.00025313574,"MEAN_MOTION_DOT":5.475e-5,"MEAN_MOTION_DDOT":0},{"OBJECT_NAME":"SL-16 R/B","OBJECT_ID":"1988-039B","EPOCH":"2026-04-07T10:43:56.119584","MEAN_MOTION":14.19620843,"ECCENTRICITY":0.00239348,"INCLINATION":71.0175,"RA_OF_ASC_NODE":7.7405,"ARG_OF_PERICENTER":293.337,"MEAN_ANOMALY":66.5237,"EPHEMERIS_TYPE":0,"CLASSIFICATION_TYPE":"U","NORAD_CAT_ID":19120,"ELEMENT_SET_NO":999,"REV_AT_EPOCH":96246,"BSTAR":2.4819234e-5,"MEAN_MOTION_DOT":4.0e-8,"MEAN_MOTION_DDOT":0},{"OBJECT_NAME":"COSMOS 1953","OBJECT_ID":"1988-050A","EPOCH":"2026-04-07T11:47:16.808928","MEAN_MOTION":15.29002925,"ECCENTRICITY":0.00115429,"INCLINATION":82.5056,"RA_OF_ASC_NODE":129.2677,"ARG_OF_PERICENTER":32.1083,"MEAN_ANOMALY":328.0857,"EPHEMERIS_TYPE":0,"CLASSIFICATION_TYPE":"U","NORAD_CAT_ID":19210,"ELEMENT_SET_NO":999,"REV_AT_EPOCH":4218,"BSTAR":0.00030190542,"MEAN_MOTION_DOT":8.55e-5,"MEAN_MOTION_DDOT":0}]
